NOAA 1 [-]              
1 04793U 70106A   20138.14276972 -.00000044  00000-0  18959-5 0  9995
2 04793 101.6570 206.7811 0031473   1.5049  26.8557 12.53994157262163
NOAA 2 (ITOS-D) [-]     
1 06235U 72082A   20138.15728508 -.00000027  00000-0  11614-3 0  9991
2 06235 101.8485 107.9957 0004516  92.2241 278.7603 12.53123889176615
NOAA 3 [-]              
1 06920U 73086A   20137.98659681 -.00000062  00000-0 -12249-3 0  9997
2 06920 102.1036 109.5122 0005985 257.0254 146.1680 12.40340944106389
NOAA 4 [-]              
1 07529U 74089A   20138.14440661 -.00000055  00000-0 -65007-4 0  9995
2 07529 101.8069 108.0056 0009310 122.2604 249.2108 12.53140480 81182
NOAA 5 [-]              
1 09057U 76077A   20137.93548906 -.00000019  00000-0  19043-3 0  9996
2 09057 101.9838 106.6929 0010366 106.2068 257.3334 12.37752228979512
TIROS N [P]             
1 11060U 78096A   20138.22673181 -.00000007  00000-0  17616-4 0  9995
2 11060  98.7412 196.5789 0010950 165.9214 194.2268 14.18267138363701
NOAA 6 [P]              
1 11416U 79057A   20138.24872316  .00000023  00000-0  24539-4 0  9990
2 11416  98.6562 137.1036 0010119 350.9809   9.1192 14.33578039132458
NOAA 7 [-]              
1 12553U 81059A   20138.13418459 -.00000031  00000-0  77278-5 0  9999
2 12553  99.0843 158.0521 0012474 115.5492 244.6973 14.17275240 10175
NOAA 8 [-]              
1 13923U 83022A   20138.18353669 -.00000002  00000-0  16682-4 0  9998
2 13923  98.6173 123.7844 0014005 279.0061  80.9535 14.28701814933706
NOAA 9 [P]              
1 15427U 84123A   20137.86370678 -.00000013  00000-0  16367-4 0  9997
2 15427  98.9390  92.0487 0015024 163.3381 214.8795 14.16097330828824
NOAA 10 [-]             
1 16969U 86073A   20137.94998340  .00000004  00000-0  18756-4 0  9999
2 16969  98.5017 130.3017 0012829  32.0962 356.5595 14.28097303752146
NOAA 11 [-]             
1 19531U 88089A   20138.14134334 -.00000014  00000-0  13517-4 0  9996
2 19531  98.4149 159.3146 0010604 208.3538 151.7061 14.15255170633133
NOAA 12 [-]             
1 21263U 91032A   20137.80819201  .00000001  00000-0  18276-4 0  9990
2 21263  98.5066 148.6852 0014552  51.4966 308.7516 14.25913854508445
NOAA 13 [-]             
1 22739U 93050A   20138.25232157  .00000008  00000-0  26469-4 0  9990
2 22739  98.4571 147.8133 0009662  12.6823 347.4592 14.12754315379579
NOAA 14 [-]             
1 23455U 94089A   20138.18159011 -.00000018  00000-0  12411-4 0  9992
2 23455  98.5461 191.0276 0009270 357.3300   2.7822 14.14144206309111
NOAA 15 [B]             
1 25338U 98030A   20138.20963862  .00000077  00000-0  50877-4 0  9996
2 25338  98.7192 163.4159 0010256   0.6755 359.4437 14.25965206144526
NOAA 16 [-]             
1 26536U 00055A   20138.18815240 -.00000018  00000-0  13425-4 0  9994
2 26536  98.7342 208.0156 0010777 169.8932 190.2460 14.13251700309827
NOAA 17 [-]             
1 27453U 02032A   20138.27048684 -.00000027  00000-0  69458-5 0  9998
2 27453  98.5819  85.4765 0011180 333.8249  26.2364 14.25065308930448
NOAA 18 [B]             
1 28654U 05018A   20138.13731009  .00000066  00000-0  60259-4 0  9995
2 28654  99.0460 194.2695 0013425 322.7119  37.3120 14.12510653772494
NOAA 19 [+]             
1 33591U 09005A   20138.20983757  .00000056  00000-0  55909-4 0  9993
2 33591  99.1959 142.7448 0014339 159.5973 200.5773 14.12408358580726
SUOMI NPP [+]           
1 37849U 11061A   20138.26927997 -.00000004  00000-0  19055-4 0  9994
2 37849  98.7351  76.6123 0001142  67.4102 101.7436 14.19551694443209
NOAA 20 [+]             
1 43013U 17073A   20138.27195576 -.00000018  00000-0  12156-4 0  9994
2 43013  98.7163  76.7043 0001553  83.2652 276.8700 14.19553825129234
